,id_localidade,validade_inicial,mens,recebimento
0,SBMM,2020-09-09 00:00:00,METAR SBMM 090000Z AUTO 03023KT 9999 NCD 24/19 Q1017 W///S4=,2020-09-09 00:01:14
1,SBMM,2020-09-09 01:00:00,METAR SBMM 090100Z AUTO 02022KT 9999 NCD 24/19 Q1018 W///S4=,2020-09-09 01:00:43
2,SBMM,2020-09-09 02:00:00,METAR SBMM 090200Z AUTO 03023KT 9999 NCD 24/19 Q1018 W///S4=,2020-09-09 02:00:31
3,SBMM,2020-09-09 03:00:00,METAR SBMM 090300Z AUTO 03020KT 9999 NCD 24/19 Q1018 W///S4=,2020-09-09 03:00:32
4,SBMM,2020-09-09 04:00:00,METAR SBMM 090400Z AUTO 03020KT 9999 BKN024 24/19 Q1018 W///S4=,2020-09-09 04:00:23
5,SBMM,2020-09-09 05:00:00,METAR SBMM 090500Z AUTO 03020KT 9999 NCD 24/19 Q1017 W///S4=,2020-09-09 05:00:58
6,SBMM,2020-09-09 06:00:00,METAR SBMM 090600Z AUTO 03018KT 9999 NCD 24/19 Q1018 W///S4=,2020-09-09 06:00:51
7,SBMM,2020-09-09 07:00:00,METAR SBMM 090700Z AUTO 03016KT 9999 NCD 24/19 Q1018 W///S4=,2020-09-09 07:00:37
8,SBMM,2020-09-09 08:00:00,METAR SBMM 090800Z AUTO 03017KT 9999 NCD 24/19 Q1018 W///S4=,2020-09-09 08:00:39
9,SBMM,2020-09-09 09:00:00,METAR SBMM 090900Z AUTO 02017KT 9999 NCD 24/19 Q1018 W///S4=,2020-09-09 09:00:22
10,SBMM,2020-09-09 10:00:00,METAR SBMM 091000Z AUTO 02018KT 9999 NCD 24/19 Q1019 W///S4=,2020-09-09 10:00:44
11,SBMM,2020-09-09 11:00:00,METAR SBMM 091100Z AUTO 02016KT 9999 NCD 24/19 Q1020 W///S4=,2020-09-09 11:00:46
12,SBMM,2020-09-09 12:00:00,METAR SBMM 091200Z AUTO 02015KT 9999 NCD 24/19 Q1020 W///S4=,2020-09-09 12:00:44
13,SBMM,2020-09-09 13:00:00,METAR SBMM 091300Z AUTO 02014KT 9999 FEW021 24/19 Q1021 W///S4=,2020-09-09 13:00:35
14,SBMM,2020-09-09 14:00:00,METAR SBMM 091400Z AUTO 03013KT 9999 NCD 24/20 Q1021 W///S4=,2020-09-09 14:00:45
15,SBMM,2020-09-09 15:00:00,METAR SBMM 091500Z AUTO 02014KT 9999 NCD 24/20 Q1020 W///S4=,2020-09-09 15:00:55
16,SBMM,2020-09-09 16:00:00,METAR SBMM 091600Z AUTO 03014KT 9999 FEW021 24/19 Q1020 W///S4=,2020-09-09 16:00:51
17,SBMM,2020-09-09 17:00:00,METAR SBMM 091700Z AUTO 04015KT 9999 NCD 24/19 Q1019 W///S4=,2020-09-09 17:00:49
18,SBMM,2020-09-09 18:00:00,METAR SBMM 091800Z AUTO 05015KT 9999 FEW021 24/20 Q1019 W///S4=,2020-09-09 18:00:15
19,SBMM,2020-09-09 19:00:00,METAR SBMM 091900Z AUTO 05018KT 9999 NCD 24/19 Q1019 W///S4=,2020-09-09 19:00:46
20,SBMM,2020-09-09 20:00:00,METAR SBMM 092000Z AUTO 05019KT 9999 NCD 24/18 Q1020 W///S4=,2020-09-09 20:00:46
21,SBMM,2020-09-09 21:00:00,METAR SBMM 092100Z AUTO 05018KT 9999 NCD 24/19 Q1020 W///S4=,2020-09-09 21:00:35
22,SBMM,2020-09-09 22:00:00,METAR SBMM 092200Z AUTO 06017KT 9999 NCD 24/18 Q1021 W///S4=,2020-09-09 22:00:19
23,SBMM,2020-09-09 23:00:00,METAR SBMM 092300Z AUTO 05017KT 9999 NCD 24/18 Q1021 W///S4=,2020-09-09 23:00:55
24,SBMM,2020-09-10 00:00:00,METAR SBMM 100000Z AUTO 05016KT 9999 NCD 24/18 Q1022 W///S4=,2020-09-10 00:01:12
25,SBMM,2020-09-10 01:00:00,METAR SBMM 100100Z AUTO 06016KT 9999 NCD 24/17 Q1022 W///S4=,2020-09-10 01:00:46
26,SBMM,2020-09-10 02:00:00,METAR SBMM 100200Z AUTO 05016KT 9999 NCD 24/18 Q1022 W///S4=,2020-09-10 02:00:08
27,SBMM,2020-09-10 03:00:00,METAR SBMM 100300Z AUTO 05019KT 9999 NCD 24/18 Q1022 W///S4=,2020-09-10 03:00:36
28,SBMM,2020-09-10 04:00:00,METAR SBMM 100400Z AUTO 04020KT 9999 NCD 24/18 Q1021 W///S4=,2020-09-10 04:00:27
29,SBMM,2020-09-10 05:00:00,METAR SBMM 100500Z AUTO 04021KT 9999 NCD 23/18 Q1021 W///S4=,2020-09-10 05:00:51
30,SBMM,2020-09-10 06:00:00,METAR SBMM 100600Z AUTO 04021KT 9999 NCD 23/18 Q1020 W///S4=,2020-09-10 06:00:47
31,SBMM,2020-09-10 07:00:00,METAR SBMM 100700Z AUTO 04020KT 9999 NCD 23/18 Q1020 W///S4=,2020-09-10 07:00:14
32,SBMM,2020-09-10 08:00:00,METAR SBMM 100800Z AUTO 03020KT 9999 FEW043 24/18 Q1020 W///S4=,2020-09-10 08:00:45
33,SBMM,2020-09-10 09:00:00,METAR SBMM 100900Z AUTO 03019KT 9999 NCD 24/19 Q1020 W///S4=,2020-09-10 09:00:22
34,SBMM,2020-09-10 09:39:00,SPECI SBMM 100939Z AUTO 02018KT 9000 BKN023 23/19 Q1020 W///S4=,2020-09-10 09:40:19
35,SBMM,2020-09-10 09:40:00,SPECI SBMM 100940Z AUTO 02018KT 9999 -RA BKN030 22/19 Q1020 W///S4=,2020-09-10 09:41:20
36,SBMM,2020-09-10 09:43:00,SPECI SBMM 100943Z AUTO 02018KT 9999 -SHRA BKN019 22/19 Q1020 W///S4=,2020-09-10 09:44:28
37,SBMM,2020-09-10 09:44:00,SPECI SBMM 100944Z AUTO 02018KT 9999 -SHRA BKN035 23/19 Q1020 W///S4=,2020-09-10 09:45:10
38,SBMM,2020-09-10 09:45:00,SPECI SBMM 100945Z AUTO 02019KT 9999 -SHRA BKN034 23/19 Q1020 W///S4=,2020-09-10 09:46:17
39,SBMM,2020-09-10 09:46:00,SPECI SBMM 100946Z AUTO 01019KT 9999 -SHRA BKN021 23/19 Q1020 W///S4=,2020-09-10 09:47:26
40,SBMM,2020-09-10 09:47:00,SPECI SBMM 100947Z AUTO 02020KT 9999 -SHRA BKN023 23/19 Q1020 W///S4=,2020-09-10 09:48:11
41,SBMM,2020-09-10 09:48:00,SPECI SBMM 100948Z AUTO 02020KT 9999 -SHRA BKN023 23/19 Q1020 W///S4=,2020-09-10 09:49:21
42,SBMM,2020-09-10 09:49:00,SPECI SBMM 100949Z AUTO 02020KT 9999 -SHRA BKN021 23/19 Q1020 W///S4=,2020-09-10 09:50:31
43,SBMM,2020-09-10 09:54:00,SPECI SBMM 100954Z AUTO 02021KT 9999 -RA OVC040 23/19 Q1020 W///S4=,2020-09-10 09:55:17
44,SBMM,2020-09-10 09:55:00,SPECI SBMM 100955Z AUTO 02022KT 9999 OVC044 23/19 Q1020 W///S4=,2020-09-10 09:56:27
45,SBMM,2020-09-10 10:00:00,METAR SBMM 101000Z AUTO 03022KT 9999 OVC046 23/19 Q1020 W///S4=,2020-09-10 10:00:22
46,SBMM,2020-09-10 10:37:00,SPECI SBMM 101037Z AUTO 03025KT 9999 OVC022 22/20 Q1020 W///S4=,2020-09-10 10:38:21
47,SBMM,2020-09-10 11:00:00,METAR SBMM 101100Z AUTO 02017KT 9999 OVC045 22/19 Q1021 W///S4=,2020-09-10 11:00:44
48,SBMM,2020-09-10 12:00:00,METAR SBMM 101200Z AUTO 01019KT 9999 OVC047 24/20 Q1022 W///S4=,2020-09-10 12:00:36
49,SBMM,2020-09-10 13:00:00,METAR SBMM 101300Z AUTO 02021KT 9999 BKN039 23/20 Q1021 W///S4=,2020-09-10 13:00:53
50,SBMM,2020-09-10 14:00:00,METAR SBMM 101400Z AUTO 01024KT 9999 NCD 24/18 Q1020 W///S4=,2020-09-10 14:00:52
51,SBMM,2020-09-10 15:00:00,METAR SBMM 101500Z AUTO 01023KT 9999 NCD 24/19 Q1020 W///S4=,2020-09-10 15:00:36
52,SBMM,2020-09-10 16:00:00,METAR SBMM 101600Z AUTO 01024KT 9999 NCD 24/19 Q1019 W///S4=,2020-09-10 16:00:48
53,SBMM,2020-09-10 17:00:00,METAR SBMM 101700Z AUTO 02025KT 9999 NCD 24/19 Q1017 W///S4=,2020-09-10 17:00:47
54,SBMM,2020-09-10 18:00:00,METAR SBMM 101800Z AUTO 02027KT 9999 SCT021 24/20 Q1016 W///S4=,2020-09-10 18:00:11
55,SBMM,2020-09-10 19:00:00,METAR SBMM 101900Z AUTO 02027KT 9999 NCD 24/19 Q1017 W///S4=,2020-09-10 19:00:49
56,SBMM,2020-09-10 20:00:00,METAR SBMM 102000Z AUTO 02029KT 9999 NCD 24/19 Q1016 W///S4=,2020-09-10 20:00:49
57,SBMM,2020-09-10 21:00:00,METAR SBMM 102100Z AUTO 03027KT 9999 NCD 24/19 Q1016 W///S4=,2020-09-10 21:00:58
58,SBMM,2020-09-10 22:00:00,METAR SBMM 102200Z AUTO 03029KT 9999 NCD 24/19 Q1016 W///S4=,2020-09-10 22:01:04
59,SBMM,2020-09-10 23:00:00,METAR SBMM 102300Z AUTO 03031KT 9999 NCD 24/19 Q1016 W///S4=,2020-09-10 23:00:48
60,SBMM,2020-09-11 00:00:00,METAR SBMM 110000Z AUTO 02030KT 9999 NCD 24/19 Q1016 W///S4=,2020-09-11 00:01:14
61,SBMM,2020-09-11 01:00:00,METAR SBMM 110100Z AUTO 02033KT 9999 NCD 24/19 Q1016 W///S5=,2020-09-11 01:00:15
62,SBMM,2020-09-11 02:00:00,METAR SBMM 110200Z AUTO 01031KT 9999 NCD 24/20 Q1016 W///S5=,2020-09-11 02:00:43
63,SBMM,2020-09-11 03:00:00,METAR SBMM 110300Z AUTO 02033KT 9999 NCD 24/20 Q1015 W///S5=,2020-09-11 03:00:11
64,SBMM,2020-09-11 04:00:00,METAR SBMM 110400Z AUTO 01031KT 9999 SCT018 24/20 Q1015 W///S5=,2020-09-11 04:00:46
65,SBMM,2020-09-11 05:00:00,METAR SBMM 110500Z AUTO 01031KT 9999 NCD 24/20 Q1015 W///S5=,2020-09-11 05:00:53
66,SBMM,2020-09-11 06:00:00,METAR SBMM 110600Z AUTO 01031KT 9999 BKN019 24/20 Q1015 W///S5=,2020-09-11 06:00:57
67,SBMM,2020-09-11 07:00:00,METAR SBMM 110700Z AUTO 01031KT 9999 NCD 24/20 Q1015 W///S5=,2020-09-11 07:00:51
68,SBMM,2020-09-11 08:00:00,METAR SBMM 110800Z AUTO 01030KT 9999 FEW020 24/20 Q1015 W///S5=,2020-09-11 08:00:45
69,SBMM,2020-09-11 09:00:00,METAR SBMM 110900Z AUTO 01030KT 9999 NCD 24/19 Q1016 W///S5=,2020-09-11 09:01:29
70,SBMM,2020-09-11 10:00:00,METAR SBMM 111000Z AUTO 01030KT 9999 NCD 24/20 Q1016 W///S5=,2020-09-11 10:00:15
71,SBMM,2020-09-11 11:00:00,METAR SBMM 111100Z AUTO 01030KT 9999 NCD 24/20 Q1017 W///S5=,2020-09-11 11:00:58
72,SBMM,2020-09-11 12:00:00,METAR SBMM 111200Z AUTO 01030KT 9999 FEW019 24/20 Q1016 W///S5=,2020-09-11 12:00:56
73,SBMM,2020-09-11 13:00:00,METAR SBMM 111300Z AUTO 00026KT 9999 SCT015 24/20 Q1018 W///S4=,2020-09-11 13:00:27
74,SBMM,2020-09-11 14:00:00,METAR SBMM 111400Z AUTO 01027KT 9999 FEW016 24/20 Q1017 W///S5=,2020-09-11 14:00:53
75,SBMM,2020-09-11 15:00:00,METAR SBMM 111500Z AUTO 01026KT 9999 NCD 24/20 Q1017 W///S5=,2020-09-11 15:00:24
76,SBMM,2020-09-11 16:00:00,METAR SBMM 111600Z AUTO 01025KT 9999 NCD 24/20 Q1016 W///S4=,2020-09-11 16:00:18
77,SBMM,2020-09-11 17:00:00,METAR SBMM 111700Z AUTO 01026KT 9999 NCD 24/20 Q1015 W///S4=,2020-09-11 17:00:24
78,SBMM,2020-09-11 18:00:00,METAR SBMM 111800Z AUTO 01026KT 9999 NCD 24/20 Q1015 W///S4=,2020-09-11 18:00:48
79,SBMM,2020-09-11 19:00:00,METAR SBMM 111900Z AUTO 02023KT 9999 NCD 24/20 Q1016 W///S4=,2020-09-11 19:00:54
80,SBMM,2020-09-11 20:00:00,METAR SBMM 112000Z AUTO 02022KT 9999 NCD 24/20 Q1016 W///S4=,2020-09-11 20:00:52
81,SBMM,2020-09-11 21:00:00,METAR SBMM 112100Z AUTO 02025KT 9999 NCD 24/20 Q1016 W///S4=,2020-09-11 21:00:40
82,SBMM,2020-09-11 22:00:00,METAR SBMM 112200Z AUTO 02023KT 9999 NCD 24/20 Q1017 W///S4=,2020-09-11 22:00:50
83,SBMM,2020-09-11 23:00:00,METAR SBMM 112300Z AUTO 02022KT 9999 FEW014 24/21 Q1018 W///S4=,2020-09-11 23:00:51
84,SBMM,2020-09-11 23:27:00,SPECI SBMM 112327Z AUTO 02023KT 9999 NCD 24/20 Q1018 W///S4=,2020-09-11 23:27:16
85,SBMM,2020-09-12 00:00:00,METAR SBMM 120000Z AUTO 02023KT 9999 NCD 24/20 Q1018 W///S4=,2020-09-12 00:01:16
86,SBMM,2020-09-12 01:00:00,METAR SBMM 120100Z AUTO 02023KT 9999 SCT018 24/20 Q1018 W///S4=,2020-09-12 01:00:53
87,SBMM,2020-09-12 02:00:00,METAR SBMM 120200Z AUTO 02024KT 9999 FEW018 24/21 Q1018 W///S4=,2020-09-12 02:00:46
88,SBMM,2020-09-12 03:00:00,METAR SBMM 120300Z AUTO 03025KT 9999 NCD 24/20 Q1018 W///S4=,2020-09-12 03:00:24
89,SBMM,2020-09-12 04:00:00,METAR SBMM 120400Z AUTO 02025KT 9999 NCD 24/20 Q1017 W///S4=,2020-09-12 04:00:17
90,SBMM,2020-09-12 05:00:00,METAR SBMM 120500Z AUTO 03026KT 9999 BKN019 24/20 Q1017 W///S4=,2020-09-12 05:00:41
91,SBMM,2020-09-12 06:00:00,METAR SBMM 120600Z AUTO 02027KT 9999 BKN028 24/19 Q1017 W///S4=,2020-09-12 06:00:57
92,SBMM,2020-09-12 07:00:00,METAR SBMM 120700Z AUTO 02028KT 9999 BKN035 24/20 Q1017 W///S4=,2020-09-12 07:00:45
93,SBMM,2020-09-12 08:00:00,METAR SBMM 120800Z AUTO 02029KT 9999 NCD 24/19 Q1017 W///S4=,2020-09-12 08:00:17
94,SBMM,2020-09-12 09:00:00,METAR SBMM 120900Z AUTO 02026KT 9999 NCD 24/20 Q1018 W///S4=,2020-09-12 09:00:16
95,SBMM,2020-09-12 10:00:00,METAR SBMM 121000Z AUTO 01027KT 9999 NCD 24/19 Q1019 W///S4=,2020-09-12 10:00:38
96,SBMM,2020-09-12 11:00:00,METAR SBMM 121100Z AUTO 02027KT 9999 SCT027 24/19 Q1019 W///S4=,2020-09-12 11:00:54
97,SBMM,2020-09-12 12:00:00,METAR SBMM 121200Z AUTO 01027KT 9999 NCD 24/19 Q1020 W///S4=,2020-09-12 12:00:57
98,SBMM,2020-09-12 13:00:00,METAR SBMM 121300Z AUTO 01026KT 9999 NCD 24/20 Q1020 W///S4=,2020-09-12 13:00:45
99,SBMM,2020-09-12 14:00:00,METAR SBMM 121400Z AUTO 01027KT 9999 NCD 24/20 Q1020 W///S4=,2020-09-12 14:00:37
100,SBMM,2020-09-12 15:00:00,METAR SBMM 121500Z AUTO 01026KT 9999 NCD 24/19 Q1019 W///S4=,2020-09-12 15:00:52
101,SBMM,2020-09-12 16:00:00,METAR SBMM 121600Z AUTO 01025KT 9999 NCD 24/19 Q1019 W///S4=,2020-09-12 16:00:38
102,SBMM,2020-09-12 17:00:00,METAR SBMM 121700Z AUTO 01025KT 9999 NCD 24/20 Q1018 W///S4=,2020-09-12 17:00:48
103,SBMM,2020-09-12 18:00:00,METAR SBMM 121800Z AUTO 02026KT 9999 NCD 24/20 Q1018 W///S4=,2020-09-12 18:00:26
104,SBMM,2020-09-12 19:00:00,METAR SBMM 121900Z AUTO 02026KT 9999 NCD 24/19 Q1018 W///S4=,2020-09-12 20:23:00
105,SBMM,2020-09-12 20:00:00,METAR SBMM 122000Z AUTO 02025KT 9999 NCD 24/20 Q1018 W///S4=,2020-09-12 20:25:11
106,SBMM,2020-09-12 21:00:00,METAR SBMM 122100Z AUTO 02027KT 9999 NCD 24/20 Q1018 W///S4=,2020-09-12 21:00:34
107,SBMM,2020-09-12 22:00:00,METAR SBMM 122200Z AUTO 03027KT 9999 NCD 24/20 Q1018 W///S4=,2020-09-12 22:00:44
108,SBMM,2020-09-12 23:00:00,METAR SBMM 122300Z AUTO 03026KT 9999 NCD 24/20 Q1019 W///S4=,2020-09-12 23:00:47
109,SBMM,2020-09-13 00:00:00,METAR SBMM 130000Z AUTO 03028KT 9999 NCD 24/20 Q1019 W///S4=,2020-09-13 00:01:31
